SL-16 R/B               
1 22566U 93016B   26050.96925326 -.00000135  00000+0 -44683-4 0  9994
2 22566  71.0043 252.4010 0010688 338.3413  21.7257 14.15300021699667
COSMOS 2242             
1 22626U 93024A   26051.11759003  .00001678  00000+0  14520-3 0  9992
2 22626  82.5173 283.5260 0016685   9.7726 350.3817 14.96472702777762
SL-16 R/B               
1 22803U 93059B   26051.18448846 -.00000037  00000+0  56773-5 0  9991
2 22803  70.9894  48.0410 0019220 240.6621 119.2583 14.17227390677056
ARIANE 40 R/B           
1 22830U 93061H   26051.17106458  .00000172  00000+0  79004-4 0  9993
2 22830  98.4956 120.4012 0010108 341.6608  18.4210 14.32850947691595
COSMOS 2278             
1 23087U 94023A   26050.84601551  .00000249  00000+0  15497-3 0  9994
2 23087  71.0511 212.4276 0007113  48.7669 311.4065 14.14365904642282
SL-16 R/B               
1 23088U 94023B   26051.18333824  .00000309  00000+0  18438-3 0  9993
2 23088  70.9991 107.6549 0004895 301.8027  58.2619 14.15009967643610
SL-16 R/B               
1 23343U 94074B   26051.06525648  .00000410  00000+0  61649-4 0  9993
2 23343  97.7134  82.5948 0005131 281.0474 100.7470 14.79385644684648
SL-16 R/B               
1 23405U 94077B   26051.17176954  .00000094  00000+0  72508-4 0  9993
2 23405  70.9837  29.3413 0003878 229.3598 130.7188 14.15563487613750
ARIANE 40+ R/B          
1 23561U 95021B   26051.23568529  .00000245  00000+0  92161-4 0  9991
2 23561  98.4534 122.9516 0006788 184.8112 243.2867 14.39758694616733
SL-16 R/B               
1 23705U 95058B   26050.89521059 -.00000170  00000+0 -62657-4 0  9995
2 23705  71.0200 217.6123 0011428 156.6162 203.5483 14.15495553565333
SL-16 R/B               
1 24298U 96051B   26050.96491020  .00000082  00000+0  71233-4 0  9999
2 24298  70.7576 212.7541 0016700 173.5450 186.5888 14.12410625519140
ORBVIEW 2 (SEASTAR)     
1 24883U 97037A   26051.06198479  .00000227  00000+0  95179-4 0  9994
2 24883  98.8534 214.9096 0003183 107.6220 252.5312 14.35480060505942
