CCSDS_OMM_VERS = 2.0
CREATION_DATE  = 
ORIGINATOR     = 

OBJECT_NAME    = SL-16 R/B
OBJECT_ID      = 1993-016B
CENTER_NAME    = EARTH
REF_FRAME      = TEME
TIME_SYSTEM    = UTC
MEAN_ELEMENT_THEORY = SGP/SGP4

EPOCH          = 2026-02-19T23:15:43.481664
MEAN_MOTION    = 14.15300021
ECCENTRICITY   = .0010688
INCLINATION    = 71.0043
RA_OF_ASC_NODE = 252.4010
ARG_OF_PERICENTER = 338.3413
MEAN_ANOMALY   = 21.7257

EPHEMERIS_TYPE = 0
CLASSIFICATION_TYPE = U
NORAD_CAT_ID   = 22566
ELEMENT_SET_NO = 999
REV_AT_EPOCH   = 69966
BSTAR          = -.44683E-4
MEAN_MOTION_DOT = -.135E-5
MEAN_MOTION_DDOT = 0

CCSDS_OMM_VERS = 2.0
CREATION_DATE  = 
ORIGINATOR     = 

OBJECT_NAME    = COSMOS 2242
OBJECT_ID      = 1993-024A
CENTER_NAME    = EARTH
REF_FRAME      = TEME
TIME_SYSTEM    = UTC
MEAN_ELEMENT_THEORY = SGP/SGP4

EPOCH          = 2026-02-20T02:49:19.778592
MEAN_MOTION    = 14.96472702
ECCENTRICITY   = .00166854
INCLINATION    = 82.5173
RA_OF_ASC_NODE = 283.5260
ARG_OF_PERICENTER = 9.7726
MEAN_ANOMALY   = 350.3817

EPHEMERIS_TYPE = 0
CLASSIFICATION_TYPE = U
NORAD_CAT_ID   = 22626
ELEMENT_SET_NO = 999
REV_AT_EPOCH   = 77776
BSTAR          = .145199E-3
MEAN_MOTION_DOT = .1678E-4
MEAN_MOTION_DDOT = 0

CCSDS_OMM_VERS = 2.0
CREATION_DATE  = 
ORIGINATOR     = 

OBJECT_NAME    = SL-16 R/B
OBJECT_ID      = 1993-059B
CENTER_NAME    = EARTH
REF_FRAME      = TEME
TIME_SYSTEM    = UTC
MEAN_ELEMENT_THEORY = SGP/SGP4

EPOCH          = 2026-02-20T04:25:39.802944
MEAN_MOTION    = 14.17227390
ECCENTRICITY   = .001922
INCLINATION    = 70.9894
RA_OF_ASC_NODE = 48.0410
ARG_OF_PERICENTER = 240.6621
MEAN_ANOMALY   = 119.2583

EPHEMERIS_TYPE = 0
CLASSIFICATION_TYPE = U
NORAD_CAT_ID   = 22803
ELEMENT_SET_NO = 999
REV_AT_EPOCH   = 67705
BSTAR          = .5677275E-5
MEAN_MOTION_DOT = -.37E-6
MEAN_MOTION_DDOT = 0

CCSDS_OMM_VERS = 2.0
CREATION_DATE  = 
ORIGINATOR     = 

OBJECT_NAME    = ARIANE 40 R/B
OBJECT_ID      = 1993-061H
CENTER_NAME    = EARTH
REF_FRAME      = TEME
TIME_SYSTEM    = UTC
MEAN_ELEMENT_THEORY = SGP/SGP4

EPOCH          = 2026-02-20T04:06:19.979712
MEAN_MOTION    = 14.32850947
ECCENTRICITY   = .00101082
INCLINATION    = 98.4956
RA_OF_ASC_NODE = 120.4012
ARG_OF_PERICENTER = 341.6608
MEAN_ANOMALY   = 18.4210

EPHEMERIS_TYPE = 0
CLASSIFICATION_TYPE = U
NORAD_CAT_ID   = 22830
ELEMENT_SET_NO = 999
REV_AT_EPOCH   = 69159
BSTAR          = .79003727E-4
MEAN_MOTION_DOT = .172E-5
MEAN_MOTION_DDOT = 0

CCSDS_OMM_VERS = 2.0
CREATION_DATE  = 
ORIGINATOR     = 

OBJECT_NAME    = COSMOS 2278
OBJECT_ID      = 1994-023A
CENTER_NAME    = EARTH
REF_FRAME      = TEME
TIME_SYSTEM    = UTC
MEAN_ELEMENT_THEORY = SGP/SGP4

EPOCH          = 2026-02-19T20:18:15.740064
MEAN_MOTION    = 14.14365904
ECCENTRICITY   = .0007113
INCLINATION    = 71.0511
RA_OF_ASC_NODE = 212.4276
ARG_OF_PERICENTER = 48.7669
MEAN_ANOMALY   = 311.4065

EPHEMERIS_TYPE = 0
CLASSIFICATION_TYPE = U
NORAD_CAT_ID   = 23087
ELEMENT_SET_NO = 999
REV_AT_EPOCH   = 64228
BSTAR          = .15497E-3
MEAN_MOTION_DOT = .249E-5
MEAN_MOTION_DDOT = 0

CCSDS_OMM_VERS = 2.0
CREATION_DATE  = 
ORIGINATOR     = 

OBJECT_NAME    = SL-16 R/B
OBJECT_ID      = 1994-023B
CENTER_NAME    = EARTH
REF_FRAME      = TEME
TIME_SYSTEM    = UTC
MEAN_ELEMENT_THEORY = SGP/SGP4

EPOCH          = 2026-02-20T04:24:00.423936
MEAN_MOTION    = 14.15009967
ECCENTRICITY   = .00048952
INCLINATION    = 70.9991
RA_OF_ASC_NODE = 107.6549
ARG_OF_PERICENTER = 301.8027
MEAN_ANOMALY   = 58.2619

EPHEMERIS_TYPE = 0
CLASSIFICATION_TYPE = U
NORAD_CAT_ID   = 23088
ELEMENT_SET_NO = 999
REV_AT_EPOCH   = 64361
BSTAR          = .18437712E-3
MEAN_MOTION_DOT = .309E-5
MEAN_MOTION_DDOT = 0

CCSDS_OMM_VERS = 2.0
CREATION_DATE  = 
ORIGINATOR     = 

OBJECT_NAME    = SL-16 R/B
OBJECT_ID      = 1994-074B
CENTER_NAME    = EARTH
REF_FRAME      = TEME
TIME_SYSTEM    = UTC
MEAN_ELEMENT_THEORY = SGP/SGP4

EPOCH          = 2026-02-20T01:33:58.159872
MEAN_MOTION    = 14.79385644
ECCENTRICITY   = .00051315
INCLINATION    = 97.7134
RA_OF_ASC_NODE = 82.5948
ARG_OF_PERICENTER = 281.0474
MEAN_ANOMALY   = 100.7470

EPHEMERIS_TYPE = 0
CLASSIFICATION_TYPE = U
NORAD_CAT_ID   = 23343
ELEMENT_SET_NO = 999
REV_AT_EPOCH   = 68464
BSTAR          = .61649375E-4
MEAN_MOTION_DOT = .41E-5
MEAN_MOTION_DDOT = 0

CCSDS_OMM_VERS = 2.0
CREATION_DATE  = 
ORIGINATOR     = 

OBJECT_NAME    = SL-16 R/B
OBJECT_ID      = 1994-077B
CENTER_NAME    = EARTH
REF_FRAME      = TEME
TIME_SYSTEM    = UTC
MEAN_ELEMENT_THEORY = SGP/SGP4

EPOCH          = 2026-02-20T04:07:20.888256
MEAN_MOTION    = 14.15563487
ECCENTRICITY   = .00038783
INCLINATION    = 70.9837
RA_OF_ASC_NODE = 29.3413
ARG_OF_PERICENTER = 229.3598
MEAN_ANOMALY   = 130.7188

EPHEMERIS_TYPE = 0
CLASSIFICATION_TYPE = U
NORAD_CAT_ID   = 23405
ELEMENT_SET_NO = 999
REV_AT_EPOCH   = 61375
BSTAR          = .72507745E-4
MEAN_MOTION_DOT = .94E-6
MEAN_MOTION_DDOT = 0

CCSDS_OMM_VERS = 2.0
CREATION_DATE  = 
ORIGINATOR     = 

OBJECT_NAME    = ARIANE 40+ R/B
OBJECT_ID      = 1995-021B
CENTER_NAME    = EARTH
REF_FRAME      = TEME
TIME_SYSTEM    = UTC
MEAN_ELEMENT_THEORY = SGP/SGP4

EPOCH          = 2026-02-20T05:39:23.209056
MEAN_MOTION    = 14.39758694
ECCENTRICITY   = .00067887
INCLINATION    = 98.4534
RA_OF_ASC_NODE = 122.9516
ARG_OF_PERICENTER = 184.8112
MEAN_ANOMALY   = 243.2867

EPHEMERIS_TYPE = 0
CLASSIFICATION_TYPE = U
NORAD_CAT_ID   = 23561
ELEMENT_SET_NO = 999
REV_AT_EPOCH   = 61673
BSTAR          = .9216073E-4
MEAN_MOTION_DOT = .245E-5
MEAN_MOTION_DDOT = 0

CCSDS_OMM_VERS = 2.0
CREATION_DATE  = 
ORIGINATOR     = 

OBJECT_NAME    = SL-16 R/B
OBJECT_ID      = 1995-058B
CENTER_NAME    = EARTH
REF_FRAME      = TEME
TIME_SYSTEM    = UTC
MEAN_ELEMENT_THEORY = SGP/SGP4

EPOCH          = 2026-02-19T21:29:06.194976
MEAN_MOTION    = 14.15495553
ECCENTRICITY   = .0011428
INCLINATION    = 71.0200
RA_OF_ASC_NODE = 217.6123
ARG_OF_PERICENTER = 156.6162
MEAN_ANOMALY   = 203.5483

EPHEMERIS_TYPE = 0
CLASSIFICATION_TYPE = U
NORAD_CAT_ID   = 23705
ELEMENT_SET_NO = 999
REV_AT_EPOCH   = 56533
BSTAR          = -.62657E-4
MEAN_MOTION_DOT = -.17E-5
MEAN_MOTION_DDOT = 0

CCSDS_OMM_VERS = 2.0
CREATION_DATE  = 
ORIGINATOR     = 

OBJECT_NAME    = SL-16 R/B
OBJECT_ID      = 1996-051B
CENTER_NAME    = EARTH
REF_FRAME      = TEME
TIME_SYSTEM    = UTC
MEAN_ELEMENT_THEORY = SGP/SGP4

EPOCH          = 2026-02-19T23:09:28.241280
MEAN_MOTION    = 14.12410625
ECCENTRICITY   = .00167005
INCLINATION    = 70.7576
RA_OF_ASC_NODE = 212.7541
ARG_OF_PERICENTER = 173.5450
MEAN_ANOMALY   = 186.5888

EPHEMERIS_TYPE = 0
CLASSIFICATION_TYPE = U
NORAD_CAT_ID   = 24298
ELEMENT_SET_NO = 999
REV_AT_EPOCH   = 51914
BSTAR          = .71232529E-4
MEAN_MOTION_DOT = .82E-6
MEAN_MOTION_DDOT = 0

CCSDS_OMM_VERS = 2.0
CREATION_DATE  = 
ORIGINATOR     = 

OBJECT_NAME    = ORBVIEW 2 (SEASTAR)
OBJECT_ID      = 1997-037A
CENTER_NAME    = EARTH
REF_FRAME      = TEME
TIME_SYSTEM    = UTC
MEAN_ELEMENT_THEORY = SGP/SGP4

EPOCH          = 2026-02-20T01:29:15.485856
MEAN_MOTION    = 14.35480060
ECCENTRICITY   = .0003183
INCLINATION    = 98.8534
RA_OF_ASC_NODE = 214.9096
ARG_OF_PERICENTER = 107.6220
MEAN_ANOMALY   = 252.5312

EPHEMERIS_TYPE = 0
CLASSIFICATION_TYPE = U
NORAD_CAT_ID   = 24883
ELEMENT_SET_NO = 999
REV_AT_EPOCH   = 50594
BSTAR          = .95178793E-4
MEAN_MOTION_DOT = .227E-5
MEAN_MOTION_DDOT = 0

